H1 CPF 01  gfz 2021 11 09 01  8131 tandemx   
H2 1003001  6202 36605    2021 11 09 00 59 42 2021 11 14 00 00 42   120 1 1  0 0 0
H9
10 0 59531  71982.000000  0    3339824.306   -998976.974  -5948715.577
10 0 59531  72102.000000  0    3957133.897  -1465365.095  -5452506.665
10 0 59531  72222.000000  0    4497715.818  -1916444.252  -4860963.117
10 0 59531  72342.000000  0    4952453.333  -2342925.819  -4184340.379
10 0 59531  72462.000000  0    5313859.431  -2735785.839  -3434402.145
10 0 59531  72582.000000  0    5576209.873  -3086454.762  -2624224.171
10 0 59531  72702.000000  0    5735644.076  -3387003.220  -1767970.518
10 0 59531  72822.000000  0    5790230.116  -3630319.200   -880647.006
10 0 59531  72942.000000  0    5739992.751  -3810272.872     22164.319
10 0 59531  73062.000000  0    5586902.078  -3921863.707    924584.568
10 0 59531  73182.000000  0    5334823.101  -3961347.330   1810725.629
10 0 59531  73302.000000  0    4989425.625  -3926335.819   2664980.097
10 0 59531  73422.000000  0    4558057.638  -3815869.677   3472303.789
10 0 59531  73542.000000  0    4049587.348  -3630460.842   4218486.742
10 0 59531  73662.000000  0    3474216.824  -3372106.223   4890407.945
10 0 59531  73782.000000  0    2843270.073  -3044269.776   5476267.403
10 0 59531  73902.000000  0    2168964.618  -2651834.470   5965791.200
10 0 59531  74022.000000  0    1464169.424  -2201026.292   6350407.448
10 0 59531  74142.000000  0     742155.572  -1699312.285   6623390.226
10 0 59531  74262.000000  0      16344.398  -1155274.028   6779971.162
10 0 59531  74382.000000  0    -699942.132   -578458.907   6817417.310
10 0 59531  74502.000000  0   -1393724.860     20787.950   6735075.181
10 0 59531  74622.000000  0   -2052601.640    631508.818   6534381.469
10 0 59531  74742.000000  0   -2664968.456   1242333.007   6218839.668
10 0 59531  74862.000000  0   -3220224.431   1841687.564   5793962.894
10 0 59531  74982.000000  0   -3708957.855   2418016.202   5267183.991
10 0 59531  75102.000000  0   -4123110.426   2960003.609   4647731.869
10 0 59531  75222.000000  0   -4456115.654   3456799.887   3946474.906
10 0 59531  75342.000000  0   -4703009.257   3898240.427   3175733.731
10 0 59531  75462.000000  0   -4860507.633   4275057.138   2349065.750
10 0 59531  75582.000000  0   -4927053.262   4579076.937   1481025.369
10 0 59531  75702.000000  0   -4902824.800   4803400.736    586902.160
10 0 59531  75822.000000  0   -4789712.153   4942557.101   -317555.418
10 0 59531  75942.000000  0   -4591257.901   4992629.575  -1216425.899
10 0 59531  76062.000000  0   -4312562.771   4951352.625  -2093905.835
10 0 59531  76182.000000  0   -3960160.151   4818172.882  -2934595.114
10 0 59531  76302.000000  0   -3541863.878   4594274.839  -3723773.405
10 0 59531  76422.000000  0   -3066591.875   4282570.995  -4447658.907
10 0 59531  76542.000000  0   -2544172.645   3887658.414  -5093645.250
10 0 59531  76662.000000  0   -1985140.084   3415744.702  -5650513.686
10 0 59531  76782.000000  0   -1400519.968   2874544.020  -6108619.832
10 0 59531  76902.000000  0    -801612.097   2273144.403  -6460050.387
10 0 59531  77022.000000  0    -199773.691   1621851.334  -6698747.724
10 0 59531  77142.000000  0     393791.789    932010.651  -6820603.717
10 0 59531  77262.000000  0     968237.807    215813.589  -6823523.541
10 0 59531  77382.000000  0    1513269.117   -513914.727  -6707458.193
10 0 59531  77502.000000  0    2019321.509  -1243939.777  -6474403.637
10 0 59531  77622.000000  0    2477725.908  -1960851.208  -6128370.414
10 0 59531  77742.000000  0    2880855.417  -2651303.029  -5675322.341
10 0 59531  77862.000000  0    3222253.475  -3302259.368  -5123085.977
10 0 59531  77982.000000  0    3496740.782  -3901241.838  -4481225.329
10 0 59531  78102.000000  0    3700496.165  -4436569.639  -3760885.634
10 0 59531  78222.000000  0    3831112.915  -4897590.877  -2974610.401
10 0 59531  78342.000000  0    3887629.368  -5274901.538  -2136130.433
10 0 59531  78462.000000  0    3870529.727  -5560545.237  -1260125.964
10 0 59531  78582.000000  0    3781715.823  -5748186.905   -361968.335
10 0 59531  78702.000000  0    3624449.491  -5833257.220    542555.102
10 0 59531  78822.000000  0    3403266.493  -5813062.690   1437525.459
10 0 59531  78942.000000  0    3123865.132  -5686858.719   2307182.292
10 0 59531  79062.000000  0    2792969.813  -5455881.211   3136210.278
10 0 59531  79182.000000  0    2418175.042  -5123339.312   3910015.336
10 0 59531  79302.000000  0    2007774.824  -4694368.823   4614986.387
10 0 59531  79422.000000  0    1570580.373  -4175946.885   5238737.248
10 0 59531  79542.000000  0    1115731.847  -3576770.967   5770324.067
10 0 59531  79662.000000  0     652506.276  -2907103.972   6200434.558
10 0 59531  79782.000000  0     190128.111  -2178591.165   6521544.316
10 0 59531  79902.000000  0    -262413.447  -1404053.143   6728041.368
10 0 59531  80022.000000  0    -696537.769   -597258.461   6816319.304
10 0 59531  80142.000000  0   -1104234.312    227322.684   6784837.031
10 0 59531  80262.000000  0   -1478209.847   1054778.010   6634143.671
10 0 59531  80382.000000  0   -1812018.504   1870022.071   6366869.270
10 0 59531  80502.000000  0   -2100173.396   2658070.513   5987681.896
10 0 59531  80622.000000  0   -2338237.539   3404316.078   5503210.833
10 0 59531  80742.000000  0   -2522892.963   4094801.406   4921937.192
10 0 59531  80862.000000  0   -2651987.713   4716485.248   4254052.043
10 0 59531  80982.000000  0   -2724558.402   5257495.919   3511282.238
10 0 59531  81102.000000  0   -2740827.789   5707366.273   2706686.150
10 0 59531  81222.000000  0   -2702177.207   6057243.949   1854423.228
10 0 59531  81342.000000  0   -2611094.784   6300072.738    969501.531
10 0 59531  81462.000000  0   -2471099.794   6430740.242     67507.645
10 0 59531  81582.000000  0   -2286645.581   6446187.895   -835675.719
10 0 59531  81702.000000  0   -2063003.618   6345480.579  -1724159.515
10 0 59531  81822.000000  0   -1806129.711   6129830.079  -2582339.455
10 0 59531  81942.000000  0   -1522517.067   5802573.079  -3395175.049
10 0 59531  82062.000000  0   -1219042.258   5369110.496  -4148454.520
10 0 59531  82182.000000  0    -902806.921   4836806.639  -4829042.398
10 0 59531  82302.000000  0    -580978.848   4214852.702  -5425103.131
10 0 59531  82422.000000  0    -260635.808   3514098.467  -5926299.895
10 0 59531  82542.000000  0      51384.755   2746854.122  -6323964.626
10 0 59531  82662.000000  0     348626.104   1926668.027  -6611235.848
10 0 59531  82782.000000  0     625140.362   1068087.039  -6783166.128
10 0 59531  82902.000000  0     875603.235    186400.536  -6836798.873
10 0 59531  83022.000000  0    1095413.039   -702627.269  -6771213.422
10 0 59531  83142.000000  0    1280772.520  -1583033.114  -6587537.718
10 0 59531  83262.000000  0    1428752.782  -2438933.030  -6288930.329
10 0 59531  83382.000000  0    1537339.563  -3254801.889  -5880533.528
10 0 59531  83502.000000  0    1605459.886  -4015752.885  -5369395.466
10 0 59531  83622.000000  0    1632988.643  -4707810.252  -4764358.225
10 0 59531  83742.000000  0    1620735.947  -5318168.114  -4075915.656
10 0 59531  83862.000000  0    1570414.191  -5835435.071  -3316042.588
10 0 59531  83982.000000  0    1484584.567  -6249857.206  -2497993.966
10 0 59531  84102.000000  0    1366585.559  -6553513.459  -1636077.761
10 0 59531  84222.000000  0    1220444.196  -6740478.814   -745405.130
10 0 59531  84342.000000  0    1050770.456  -6806950.736    158377.987
10 0 59531  84462.000000  0     862639.704  -6751333.579   1059372.059
10 0 59531  84582.000000  0     661464.237  -6574279.962   1941711.730
10 0 59531  84702.000000  0     452858.489  -6278686.602   2789855.395
10 0 59531  84822.000000  0     242500.159  -5869642.801   3588868.285
10 0 59531  84942.000000  0      35990.739  -5354334.990   4324690.639
10 0 59531  85062.000000  0    -161279.729  -4741912.199   4984388.051
10 0 59531  85182.000000  0    -344260.838  -4043313.414   5556379.412
10 0 59531  85302.000000  0    -508359.554  -3271062.472   6030638.420
10 0 59531  85422.000000  0    -649545.622  -2439033.462   6398864.661
10 0 59531  85542.000000  0    -764442.337  -1562195.447   6654620.796
10 0 59531  85662.000000  0    -850401.054   -656341.134   6793439.316
10 0 59531  85782.000000  0    -905558.667    262199.040   6812897.036
10 0 59531  85902.000000  0    -928876.504   1176851.630   6712654.761
10 0 59531  86022.000000  0    -920159.286   2071098.770   6494462.631
10 0 59531  86142.000000  0    -880054.761   2928775.920   6162131.374
10 0 59531  86262.000000  0    -810034.397   3734364.673   5721470.101
10 0 59531  86382.000000  0    -712354.932   4473276.291   5180189.864
99
